[{"OBJECT_NAME":"ONEWEB-0027","OBJECT_ID":"2020-020J","EPOCH":"2025-12-22T03:31:22.180800","MEAN_MOTION":13.17648487,"ECCENTRICITY":0.00013711,"INCLINATION":87.911,"RA_OF_ASC_NODE":41.0402,"ARG_OF_PERICENTER":99.8504,"MEAN_ANOMALY":260.2783,"EPHEMERIS_TYPE":0,"CLASSIFICATION_TYPE":"U","NORAD_CAT_ID":45432,"ELEMENT_SET_NO":999,"REV_AT_EPOCH":28304,"BSTAR":-1.8472559e-5,"MEAN_MOTION_DOT":6.0e-8,"MEAN_MOTION_DDOT":0},{"OBJECT_NAME":"ONEWEB-0064","OBJECT_ID":"2020-020K","EPOCH":"2025-12-22T04:15:08.690688","MEAN_MOTION":13.11415884,"ECCENTRICITY":0.00016386,"INCLINATION":87.8848,"RA_OF_ASC_NODE":56.3198,"ARG_OF_PERICENTER":100.1355,"MEAN_ANOMALY":259.9958,"EPHEMERIS_TYPE":0,"CLASSIFICATION_TYPE":"U","NORAD_CAT_ID":45433,"ELEMENT_SET_NO":999,"REV_AT_EPOCH":27948,"BSTAR":0.001515514,"MEAN_MOTION_DOT":5.5e-6,"MEAN_MOTION_DDOT":0},{"OBJECT_NAME":"ONEWEB-0018","OBJECT_ID":"2020-020L","EPOCH":"2025-12-22T05:01:30.416448","MEAN_MOTION":13.11416447,"ECCENTRICITY":0.00018871,"INCLINATION":87.8856,"RA_OF_ASC_NODE":56.3041,"ARG_OF_PERICENTER":97.3147,"MEAN_ANOMALY":262.8195,"EPHEMERIS_TYPE":0,"CLASSIFICATION_TYPE":"U","NORAD_CAT_ID":45434,"ELEMENT_SET_NO":999,"REV_AT_EPOCH":27943,"BSTAR":-0.00096441255,"MEAN_MOTION_DOT":-3.29e-6,"MEAN_MOTION_DDOT":0},{"OBJECT_NAME":"ONEWEB-0083","OBJECT_ID":"2020-020M","EPOCH":"2025-12-22T04:48:05.195232","MEAN_MOTION":13.11415145,"ECCENTRICITY":0.00017675,"INCLINATION":87.8855,"RA_OF_ASC_NODE":56.295,"ARG_OF_PERICENTER":99.7552,"MEAN_ANOMALY":260.3776,"EPHEMERIS_TYPE":0,"CLASSIFICATION_TYPE":"U","NORAD_CAT_ID":45435,"ELEMENT_SET_NO":999,"REV_AT_EPOCH":27947,"BSTAR":-0.0012345454,"MEAN_MOTION_DOT":-4.25e-6,"MEAN_MOTION_DDOT":0},{"OBJECT_NAME":"ONEWEB-0095","OBJECT_ID":"2020-020N","EPOCH":"2025-12-22T04:34:52.267008","MEAN_MOTION":13.11414579,"ECCENTRICITY":0.00015831,"INCLINATION":87.8849,"RA_OF_ASC_NODE":56.3076,"ARG_OF_PERICENTER":129.2327,"MEAN_ANOMALY":230.8942,"EPHEMERIS_TYPE":0,"CLASSIFICATION_TYPE":"U","NORAD_CAT_ID":45436,"ELEMENT_SET_NO":999,"REV_AT_EPOCH":27947,"BSTAR":-0.00098963337,"MEAN_MOTION_DOT":-3.38e-6,"MEAN_MOTION_DDOT":0},{"OBJECT_NAME":"ONEWEB-0092","OBJECT_ID":"2020-020P","EPOCH":"2025-12-22T03:54:24.639552","MEAN_MOTION":13.11415686,"ECCENTRICITY":0.00017394,"INCLINATION":87.8853,"RA_OF_ASC_NODE":56.312,"ARG_OF_PERICENTER":109.2725,"MEAN_ANOMALY":250.8591,"EPHEMERIS_TYPE":0,"CLASSIFICATION_TYPE":"U","NORAD_CAT_ID":45437,"ELEMENT_SET_NO":999,"REV_AT_EPOCH":27958,"BSTAR":0.0016781891,"MEAN_MOTION_DOT":6.07e-6,"MEAN_MOTION_DDOT":0},{"OBJECT_NAME":"ONEWEB-0085","OBJECT_ID":"2020-020Q","EPOCH":"2025-12-22T04:46:51.586752","MEAN_MOTION":13.11415078,"ECCENTRICITY":0.00018117,"INCLINATION":87.8849,"RA_OF_ASC_NODE":56.313,"ARG_OF_PERICENTER":102.6039,"MEAN_ANOMALY":257.5292,"EPHEMERIS_TYPE":0,"CLASSIFICATION_TYPE":"U","NORAD_CAT_ID":45438,"ELEMENT_SET_NO":999,"REV_AT_EPOCH":27947,"BSTAR":-0.0012801422,"MEAN_MOTION_DOT":-4.41e-6,"MEAN_MOTION_DDOT":0},{"OBJECT_NAME":"ONEWEB-0096","OBJECT_ID":"2020-020R","EPOCH":"2025-12-22T02:59:26.341152","MEAN_MOTION":13.11415507,"ECCENTRICITY":0.00018663,"INCLINATION":87.8858,"RA_OF_ASC_NODE":56.3091,"ARG_OF_PERICENTER":102.8499,"MEAN_ANOMALY":257.2838,"EPHEMERIS_TYPE":0,"CLASSIFICATION_TYPE":"U","NORAD_CAT_ID":45439,"ELEMENT_SET_NO":999,"REV_AT_EPOCH":27945,"BSTAR":-0.001287271,"MEAN_MOTION_DOT":-4.44e-6,"MEAN_MOTION_DDOT":0},{"OBJECT_NAME":"ONEWEB-0037","OBJECT_ID":"2020-020S","EPOCH":"2025-12-22T02:31:22.539936","MEAN_MOTION":13.1141329,"ECCENTRICITY":0.00017561,"INCLINATION":87.8864,"RA_OF_ASC_NODE":56.2833,"ARG_OF_PERICENTER":104.5763,"MEAN_ANOMALY":255.556,"EPHEMERIS_TYPE":0,"CLASSIFICATION_TYPE":"U","NORAD_CAT_ID":45440,"ELEMENT_SET_NO":999,"REV_AT_EPOCH":27948,"BSTAR":0.00020793498,"MEAN_MOTION_DOT":8.6e-7,"MEAN_MOTION_DDOT":0},{"OBJECT_NAME":"ONEWEB-0042","OBJECT_ID":"2020-020T","EPOCH":"2025-12-22T04:34:27.592896","MEAN_MOTION":13.11413582,"ECCENTRICITY":0.00018183,"INCLINATION":87.8855,"RA_OF_ASC_NODE":56.2954,"ARG_OF_PERICENTER":106.122,"MEAN_ANOMALY":254.0108,"EPHEMERIS_TYPE":0,"CLASSIFICATION_TYPE":"U","NORAD_CAT_ID":45441,"ELEMENT_SET_NO":999,"REV_AT_EPOCH":27946,"BSTAR":-0.00086245627,"MEAN_MOTION_DOT":-2.93e-6,"MEAN_MOTION_DDOT":0},{"OBJECT_NAME":"ONEWEB-0098","OBJECT_ID":"2020-020U","EPOCH":"2025-12-22T02:38:41.996256","MEAN_MOTION":13.11413545,"ECCENTRICITY":0.00017306,"INCLINATION":87.8855,"RA_OF_ASC_NODE":56.3229,"ARG_OF_PERICENTER":99.8228,"MEAN_ANOMALY":260.3095,"EPHEMERIS_TYPE":0,"CLASSIFICATION_TYPE":"U","NORAD_CAT_ID":45442,"ELEMENT_SET_NO":999,"REV_AT_EPOCH":27943,"BSTAR":-0.00054596531,"MEAN_MOTION_DOT":-1.81e-6,"MEAN_MOTION_DDOT":0},{"OBJECT_NAME":"ONEWEB-0055","OBJECT_ID":"2020-020V","EPOCH":"2025-12-22T05:54:02.069856","MEAN_MOTION":13.11414834,"ECCENTRICITY":0.00017304,"INCLINATION":87.8852,"RA_OF_ASC_NODE":56.2963,"ARG_OF_PERICENTER":99.2566,"MEAN_ANOMALY":260.8758,"EPHEMERIS_TYPE":0,"CLASSIFICATION_TYPE":"U","NORAD_CAT_ID":45443,"ELEMENT_SET_NO":999,"REV_AT_EPOCH":27942,"BSTAR":0.0015546897,"MEAN_MOTION_DOT":5.64e-6,"MEAN_MOTION_DDOT":0},{"OBJECT_NAME":"ONEWEB-0093","OBJECT_ID":"2020-020W","EPOCH":"2025-12-22T05:18:49.596768","MEAN_MOTION":13.11419636,"ECCENTRICITY":0.00022305,"INCLINATION":87.8856,"RA_OF_ASC_NODE":56.2886,"ARG_OF_PERICENTER":104.4118,"MEAN_ANOMALY":255.7258,"EPHEMERIS_TYPE":0,"CLASSIFICATION_TYPE":"U","NORAD_CAT_ID":45444,"ELEMENT_SET_NO":999,"REV_AT_EPOCH":27948,"BSTAR":0.00025310149,"MEAN_MOTION_DOT":1.02e-6,"MEAN_MOTION_DDOT":0},{"OBJECT_NAME":"ONEWEB-0029","OBJECT_ID":"2020-020X","EPOCH":"2025-12-22T03:51:57.010464","MEAN_MOTION":13.11418063,"ECCENTRICITY":0.00018512,"INCLINATION":87.8858,"RA_OF_ASC_NODE":56.3132,"ARG_OF_PERICENTER":99.0021,"MEAN_ANOMALY":261.1317,"EPHEMERIS_TYPE":0,"CLASSIFICATION_TYPE":"U","NORAD_CAT_ID":45445,"ELEMENT_SET_NO":999,"REV_AT_EPOCH":27945,"BSTAR":0.0014037646,"MEAN_MOTION_DOT":5.1e-6,"MEAN_MOTION_DDOT":0},{"OBJECT_NAME":"ONEWEB-0068","OBJECT_ID":"2020-020Y","EPOCH":"2025-12-22T05:18:25.217280","MEAN_MOTION":13.11420333,"ECCENTRICITY":0.00019551,"INCLINATION":87.8856,"RA_OF_ASC_NODE":56.2903,"ARG_OF_PERICENTER":99.9855,"MEAN_ANOMALY":260.1493,"EPHEMERIS_TYPE":0,"CLASSIFICATION_TYPE":"U","NORAD_CAT_ID":45446,"ELEMENT_SET_NO":999,"REV_AT_EPOCH":27940,"BSTAR":0.00014455607,"MEAN_MOTION_DOT":6.4e-7,"MEAN_MOTION_DDOT":0},{"OBJECT_NAME":"ONEWEB-0046","OBJECT_ID":"2020-020Z","EPOCH":"2025-12-21T21:46:57.357984","MEAN_MOTION":13.11417719,"ECCENTRICITY":0.00019316,"INCLINATION":87.8858,"RA_OF_ASC_NODE":56.3607,"ARG_OF_PERICENTER":107.8608,"MEAN_ANOMALY":252.2731,"EPHEMERIS_TYPE":0,"CLASSIFICATION_TYPE":"U","NORAD_CAT_ID":45447,"ELEMENT_SET_NO":999,"REV_AT_EPOCH":27937,"BSTAR":-0.00058137142,"MEAN_MOTION_DOT":-1.93e-6,"MEAN_MOTION_DDOT":0},{"OBJECT_NAME":"ONEWEB-0063","OBJECT_ID":"2020-020AA","EPOCH":"2025-12-22T05:47:55.197312","MEAN_MOTION":13.11420346,"ECCENTRICITY":0.00017933,"INCLINATION":87.8854,"RA_OF_ASC_NODE":56.2917,"ARG_OF_PERICENTER":110.8025,"MEAN_ANOMALY":249.3295,"EPHEMERIS_TYPE":0,"CLASSIFICATION_TYPE":"U","NORAD_CAT_ID":45448,"ELEMENT_SET_NO":999,"REV_AT_EPOCH":27950,"BSTAR":0.0017500485,"MEAN_MOTION_DOT":6.33e-6,"MEAN_MOTION_DDOT":0},{"OBJECT_NAME":"ONEWEB-0019","OBJECT_ID":"2020-020AB","EPOCH":"2025-12-22T04:58:09.157152","MEAN_MOTION":13.11992651,"ECCENTRICITY":0.00017086,"INCLINATION":87.8841,"RA_OF_ASC_NODE":56.3032,"ARG_OF_PERICENTER":98.0817,"MEAN_ANOMALY":262.0506,"EPHEMERIS_TYPE":0,"CLASSIFICATION_TYPE":"U","NORAD_CAT_ID":45449,"ELEMENT_SET_NO":999,"REV_AT_EPOCH":27934,"BSTAR":-0.00099446753,"MEAN_MOTION_DOT":-3.43e-6,"MEAN_MOTION_DDOT":0},{"OBJECT_NAME":"ONEWEB-0094","OBJECT_ID":"2020-020AC","EPOCH":"2025-12-22T02:52:30.027936","MEAN_MOTION":13.17647807,"ECCENTRICITY":0.00018634,"INCLINATION":87.9112,"RA_OF_ASC_NODE":41.0411,"ARG_OF_PERICENTER":94.7594,"MEAN_ANOMALY":265.375,"EPHEMERIS_TYPE":0,"CLASSIFICATION_TYPE":"U","NORAD_CAT_ID":45450,"ELEMENT_SET_NO":999,"REV_AT_EPOCH":28299,"BSTAR":0.00014359275,"MEAN_MOTION_DOT":6.9e-7,"MEAN_MOTION_DDOT":0},{"OBJECT_NAME":"ONEWEB-0087","OBJECT_ID":"2020-020AD","EPOCH":"2025-12-22T04:12:30.727296","MEAN_MOTION":13.11417261,"ECCENTRICITY":0.00020962,"INCLINATION":87.8863,"RA_OF_ASC_NODE":56.2645,"ARG_OF_PERICENTER":97.8646,"MEAN_ANOMALY":262.272,"EPHEMERIS_TYPE":0,"CLASSIFICATION_TYPE":"U","NORAD_CAT_ID":45451,"ELEMENT_SET_NO":999,"REV_AT_EPOCH":27938,"BSTAR":0.0014529102,"MEAN_MOTION_DOT":5.28e-6,"MEAN_MOTION_DDOT":0},{"OBJECT_NAME":"ONEWEB-0082","OBJECT_ID":"2020-020AE","EPOCH":"2025-12-22T05:57:41.573376","MEAN_MOTION":13.11414594,"ECCENTRICITY":0.00019996,"INCLINATION":87.8863,"RA_OF_ASC_NODE":56.275,"ARG_OF_PERICENTER":97.5505,"MEAN_ANOMALY":262.585,"EPHEMERIS_TYPE":0,"CLASSIFICATION_TYPE":"U","NORAD_CAT_ID":45452,"ELEMENT_SET_NO":999,"REV_AT_EPOCH":27948,"BSTAR":0.0014220295,"MEAN_MOTION_DOT":5.17e-6,"MEAN_MOTION_DDOT":0},{"OBJECT_NAME":"ONEWEB-0050","OBJECT_ID":"2020-020AF","EPOCH":"2025-12-22T05:55:11.846496","MEAN_MOTION":14.89609506,"ECCENTRICITY":7.554e-5,"INCLINATION":88.9237,"RA_OF_ASC_NODE":257.3465,"ARG_OF_PERICENTER":196.115,"MEAN_ANOMALY":164.0055,"EPHEMERIS_TYPE":0,"CLASSIFICATION_TYPE":"U","NORAD_CAT_ID":45453,"ELEMENT_SET_NO":999,"REV_AT_EPOCH":31403,"BSTAR":0.00032421625,"MEAN_MOTION_DOT":3.115e-5,"MEAN_MOTION_DDOT":0},{"OBJECT_NAME":"ONEWEB-0034","OBJECT_ID":"2020-020AG","EPOCH":"2025-12-22T04:38:19.863744","MEAN_MOTION":13.11415341,"ECCENTRICITY":0.00017831,"INCLINATION":87.885,"RA_OF_ASC_NODE":56.2989,"ARG_OF_PERICENTER":101.4017,"MEAN_ANOMALY":258.7312,"EPHEMERIS_TYPE":0,"CLASSIFICATION_TYPE":"U","NORAD_CAT_ID":45454,"ELEMENT_SET_NO":999,"REV_AT_EPOCH":27939,"BSTAR":-0.0011121699,"MEAN_MOTION_DOT":-3.81e-6,"MEAN_MOTION_DDOT":0}]
